[{"Nom_Gare":"Aix-en-Provence TGV","INSEE_REG":84,"NOM_REG":"Auvergne-Rh\u00f4ne-Alpes","INSEE_DEP":1,"NOM_DEP":"Ain","Latitude":46.097,"Longitude":4.847,"code_postal":"13592","service_wifi":"Oui","traffic":"high"},{"Nom_Gare":"Bourg-en-Bresse","INSEE_REG":84,"NOM_REG":"Auvergne-Rh\u00f4ne-Alpes","INSEE_DEP":1,"NOM_DEP":"Ain","Latitude":46.196,"Longitude":5.275,"code_postal":"1000","service_wifi":"Oui","traffic":"high"},{"Nom_Gare":"Cluses","INSEE_REG":84,"NOM_REG":"Auvergne-Rh\u00f4ne-Alpes","INSEE_DEP":1,"NOM_DEP":"Ain","Latitude":46.171,"Longitude":5.577,"code_postal":"74300","service_wifi":"Non","traffic":"high"},{"Nom_Gare":"Nurieux","INSEE_REG":84,"NOM_REG":"Auvergne-Rh\u00f4ne-Alpes","INSEE_DEP":1,"NOM_DEP":"Ain","Latitude":46.181,"Longitude":5.521,"code_postal":"1760","service_wifi":"Non","traffic":"medium"},{"Nom_Gare":"Antibes","INSEE_REG":93,"NOM_REG":"Provence-Alpes-C\u00f4te d'Azur","INSEE_DEP":6,"NOM_DEP":"Alpes-Maritimes","Latitude":43.584,"Longitude":7.108,"code_postal":"6600","service_wifi":"Oui","traffic":"high"},{"Nom_Gare":"Cannes","INSEE_REG":93,"NOM_REG":"Provence-Alpes-C\u00f4te d'Azur","INSEE_DEP":6,"NOM_DEP":"Alpes-Maritimes","Latitude":43.653,"Longitude":7.146,"code_postal":"6400","service_wifi":"Oui","traffic":"high"},{"Nom_Gare":"Menton","INSEE_REG":93,"NOM_REG":"Provence-Alpes-C\u00f4te d'Azur","INSEE_DEP":6,"NOM_DEP":"Alpes-Maritimes","Latitude":43.774,"Longitude":7.489,"code_postal":"6500","service_wifi":"Non","traffic":"high"},{"Nom_Gare":"Nice-Ville","INSEE_REG":93,"NOM_REG":"Provence-Alpes-C\u00f4te d'Azur","INSEE_DEP":6,"NOM_DEP":"Alpes-Maritimes","Latitude":43.697,"Longitude":7.272,"code_postal":"6008","service_wifi":"Oui","traffic":"high"},{"Nom_Gare":"Charleville-M\u00e9zi\u00e8res","INSEE_REG":44,"NOM_REG":"Grand Est","INSEE_DEP":8,"NOM_DEP":"Ardennes","Latitude":49.771,"Longitude":4.72,"code_postal":"8000","service_wifi":"Oui","traffic":"high"},{"Nom_Gare":"Rethel","INSEE_REG":44,"NOM_REG":"Grand Est","INSEE_DEP":8,"NOM_DEP":"Ardennes","Latitude":49.5,"Longitude":4.402,"code_postal":"8300","service_wifi":"Non","traffic":"high"},{"Nom_Gare":"Sedan","INSEE_REG":44,"NOM_REG":"Grand Est","INSEE_DEP":8,"NOM_DEP":"Ardennes","Latitude":49.705,"Longitude":4.943,"code_postal":"8200","service_wifi":"Non","traffic":"high"},{"Nom_Gare":"Dijon-Ville","INSEE_REG":44,"NOM_REG":"Grand Est","INSEE_DEP":10,"NOM_DEP":"Aube","Latitude":48.119,"Longitude":4.789,"code_postal":"21000","service_wifi":"Oui","traffic":"high"},{"Nom_Gare":"Carcassonne","INSEE_REG":76,"NOM_REG":"Occitanie","INSEE_DEP":11,"NOM_DEP":"Aude","Latitude":43.179,"Longitude":2.405,"code_postal":"11000","service_wifi":"Oui","traffic":"high"},{"Nom_Gare":"Narbonne","INSEE_REG":76,"NOM_REG":"Occitanie","INSEE_DEP":11,"NOM_DEP":"Aude","Latitude":43.182,"Longitude":3.026,"code_postal":"11100","service_wifi":"Oui","traffic":"high"},{"Nom_Gare":"Arles","INSEE_REG":93,"NOM_REG":"Provence-Alpes-C\u00f4te d'Azur","INSEE_DEP":13,"NOM_DEP":"Bouches-du-Rh\u00f4ne","Latitude":43.641,"Longitude":5.071,"code_postal":"13200","service_wifi":"Non","traffic":"high"},{"Nom_Gare":"Avignon TGV","INSEE_REG":93,"NOM_REG":"Provence-Alpes-C\u00f4te d'Azur","INSEE_DEP":13,"NOM_DEP":"Bouches-du-Rh\u00f4ne","Latitude":43.657,"Longitude":5.095,"code_postal":"84000","service_wifi":"Oui","traffic":"high"},{"Nom_Gare":"Miramas","INSEE_REG":93,"NOM_REG":"Provence-Alpes-C\u00f4te d'Azur","INSEE_DEP":13,"NOM_DEP":"Bouches-du-Rh\u00f4ne","Latitude":43.643,"Longitude":5.021,"code_postal":"13140","service_wifi":"Non","traffic":"high"},{"Nom_Gare":"Angoul\u00eame","INSEE_REG":75,"NOM_REG":"Nouvelle-Aquitaine","INSEE_DEP":16,"NOM_DEP":"Charente","Latitude":45.655,"Longitude":0.151,"code_postal":"16000","service_wifi":"Oui","traffic":"high"},{"Nom_Gare":"Champagne-Ardenne TGV","INSEE_REG":75,"NOM_REG":"Nouvelle-Aquitaine","INSEE_DEP":16,"NOM_DEP":"Charente","Latitude":45.62,"Longitude":-0.222,"code_postal":"51430","service_wifi":"Oui","traffic":"high"},{"Nom_Gare":"La Rochelle-Ville","INSEE_REG":75,"NOM_REG":"Nouvelle-Aquitaine","INSEE_DEP":17,"NOM_DEP":"Charente-Maritime","Latitude":46.158,"Longitude":-1.154,"code_postal":"17000","service_wifi":"Oui","traffic":"high"},{"Nom_Gare":"Rouen-Rive-Droite","INSEE_REG":75,"NOM_REG":"Nouvelle-Aquitaine","INSEE_DEP":17,"NOM_DEP":"Charente-Maritime","Latitude":46.318,"Longitude":-0.973,"code_postal":"76000","service_wifi":"Oui","traffic":"high"},{"Nom_Gare":"Surg\u00e8res","INSEE_REG":75,"NOM_REG":"Nouvelle-Aquitaine","INSEE_DEP":17,"NOM_DEP":"Charente-Maritime","Latitude":46.114,"Longitude":-0.741,"code_postal":"17700","service_wifi":"Non","traffic":"high"},{"Nom_Gare":"Beaune","INSEE_REG":27,"NOM_REG":"Bourgogne-Franche-Comt\u00e9","INSEE_DEP":21,"NOM_DEP":"C\u00f4te-d'Or","Latitude":47.104,"Longitude":4.67,"code_postal":"21200","service_wifi":"Non","traffic":"high"},{"Nom_Gare":"Montbard","INSEE_REG":27,"NOM_REG":"Bourgogne-Franche-Comt\u00e9","INSEE_DEP":21,"NOM_DEP":"C\u00f4te-d'Or","Latitude":47.837,"Longitude":4.364,"code_postal":"21500","service_wifi":"Non","traffic":"high"},{"Nom_Gare":"Guingamp","INSEE_REG":53,"NOM_REG":"Bretagne","INSEE_DEP":22,"NOM_DEP":"C\u00f4tes-d'Armor","Latitude":48.563,"Longitude":-3.155,"code_postal":"22200","service_wifi":"Oui","traffic":"high"},{"Nom_Gare":"Lamballe","INSEE_REG":53,"NOM_REG":"Bretagne","INSEE_DEP":22,"NOM_DEP":"C\u00f4tes-d'Armor","Latitude":48.439,"Longitude":-2.538,"code_postal":"22400","service_wifi":"Non","traffic":"high"},{"Nom_Gare":"Lannion","INSEE_REG":53,"NOM_REG":"Bretagne","INSEE_DEP":22,"NOM_DEP":"C\u00f4tes-d'Armor","Latitude":48.744,"Longitude":-3.472,"code_postal":"22300","service_wifi":"Non","traffic":"high"},{"Nom_Gare":"M\u00e2con-Ville","INSEE_REG":53,"NOM_REG":"Bretagne","INSEE_DEP":22,"NOM_DEP":"C\u00f4tes-d'Armor","Latitude":48.581,"Longitude":-2.197,"code_postal":"71000","service_wifi":"Non","traffic":"high"},{"Nom_Gare":"Saint-Brieuc","INSEE_REG":53,"NOM_REG":"Bretagne","INSEE_DEP":22,"NOM_DEP":"C\u00f4tes-d'Armor","Latitude":48.503,"Longitude":-2.763,"code_postal":"22000","service_wifi":"Non","traffic":"high"},{"Nom_Gare":"Besan\u00e7on-Viotte","INSEE_REG":27,"NOM_REG":"Bourgogne-Franche-Comt\u00e9","INSEE_DEP":25,"NOM_DEP":"Doubs","Latitude":47.248,"Longitude":6.026,"code_postal":"25000","service_wifi":"Oui","traffic":"high"},{"Nom_Gare":"Frasne","INSEE_REG":27,"NOM_REG":"Bourgogne-Franche-Comt\u00e9","INSEE_DEP":25,"NOM_DEP":"Doubs","Latitude":46.856,"Longitude":6.149,"code_postal":"25560","service_wifi":"Non","traffic":"high"},{"Nom_Gare":"Mont\u00e9limar","INSEE_REG":84,"NOM_REG":"Auvergne-Rh\u00f4ne-Alpes","INSEE_DEP":26,"NOM_DEP":"Dr\u00f4me","Latitude":44.546,"Longitude":4.744,"code_postal":"26200","service_wifi":"Oui","traffic":"high"},{"Nom_Gare":"Brest","INSEE_REG":53,"NOM_REG":"Bretagne","INSEE_DEP":29,"NOM_DEP":"Finist\u00e8re","Latitude":48.391,"Longitude":-4.502,"code_postal":"29200","service_wifi":"Oui","traffic":"high"},{"Nom_Gare":"Landerneau","INSEE_REG":53,"NOM_REG":"Bretagne","INSEE_DEP":29,"NOM_DEP":"Finist\u00e8re","Latitude":48.45,"Longitude":-4.253,"code_postal":"29800","service_wifi":"Non","traffic":"high"},{"Nom_Gare":"Quimper","INSEE_REG":53,"NOM_REG":"Bretagne","INSEE_DEP":29,"NOM_DEP":"Finist\u00e8re","Latitude":48.014,"Longitude":-4.094,"code_postal":"29000","service_wifi":"Oui","traffic":"high"},{"Nom_Gare":"Quimperl\u00e9","INSEE_REG":53,"NOM_REG":"Bretagne","INSEE_DEP":29,"NOM_DEP":"Finist\u00e8re","Latitude":47.884,"Longitude":-3.548,"code_postal":"29300","service_wifi":"Non","traffic":"high"},{"Nom_Gare":"Rosporden","INSEE_REG":53,"NOM_REG":"Bretagne","INSEE_DEP":29,"NOM_DEP":"Finist\u00e8re","Latitude":47.989,"Longitude":-3.791,"code_postal":"29140","service_wifi":"Non","traffic":"high"},{"Nom_Gare":"Morlaix","INSEE_REG":53,"NOM_REG":"Bretagne","INSEE_DEP":29,"NOM_DEP":"Finist\u00e8re","Latitude":48.579,"Longitude":-3.833,"code_postal":"29600","service_wifi":"Oui","traffic":"high"},{"Nom_Gare":"N\u00eemes","INSEE_REG":76,"NOM_REG":"Occitanie","INSEE_DEP":30,"NOM_DEP":"Gard","Latitude":43.832,"Longitude":4.386,"code_postal":"30000","service_wifi":"Oui","traffic":"high"},{"Nom_Gare":"Meuse TGV","INSEE_REG":76,"NOM_REG":"Occitanie","INSEE_DEP":31,"NOM_DEP":"Haute-Garonne","Latitude":43.583,"Longitude":1.484,"code_postal":"55220","service_wifi":"Oui","traffic":"high"},{"Nom_Gare":"Toulouse-Matabiau","INSEE_REG":76,"NOM_REG":"Occitanie","INSEE_DEP":31,"NOM_DEP":"Haute-Garonne","Latitude":43.61,"Longitude":1.447,"code_postal":"31500","service_wifi":"Oui","traffic":"high"},{"Nom_Gare":"Arcachon","INSEE_REG":75,"NOM_REG":"Nouvelle-Aquitaine","INSEE_DEP":33,"NOM_DEP":"Gironde","Latitude":44.662,"Longitude":-1.17,"code_postal":"33120","service_wifi":"Non","traffic":"high"},{"Nom_Gare":"Facture-Biganos","INSEE_REG":75,"NOM_REG":"Nouvelle-Aquitaine","INSEE_DEP":33,"NOM_DEP":"Gironde","Latitude":44.65,"Longitude":-0.956,"code_postal":"33380","service_wifi":"Non","traffic":"high"},{"Nom_Gare":"Libourne","INSEE_REG":75,"NOM_REG":"Nouvelle-Aquitaine","INSEE_DEP":33,"NOM_DEP":"Gironde","Latitude":44.896,"Longitude":-0.24,"code_postal":"33500","service_wifi":"Oui","traffic":"high"},{"Nom_Gare":"La Teste","INSEE_REG":75,"NOM_REG":"Nouvelle-Aquitaine","INSEE_DEP":33,"NOM_DEP":"Gironde","Latitude":44.633,"Longitude":-1.133,"code_postal":"33260","service_wifi":"Non","traffic":"high"},{"Nom_Gare":"Agde","INSEE_REG":76,"NOM_REG":"Occitanie","INSEE_DEP":34,"NOM_DEP":"H\u00e9rault","Latitude":43.318,"Longitude":3.483,"code_postal":"34300","service_wifi":"Oui","traffic":"high"},{"Nom_Gare":"B\u00e9ziers","INSEE_REG":76,"NOM_REG":"Occitanie","INSEE_DEP":34,"NOM_DEP":"H\u00e9rault","Latitude":43.42,"Longitude":3.236,"code_postal":"34500","service_wifi":"Oui","traffic":"high"},{"Nom_Gare":"S\u00e8te","INSEE_REG":76,"NOM_REG":"Occitanie","INSEE_DEP":34,"NOM_DEP":"H\u00e9rault","Latitude":43.409,"Longitude":3.698,"code_postal":"34200","service_wifi":"Oui","traffic":"high"},{"Nom_Gare":"TGV Haute-Picardie","INSEE_REG":76,"NOM_REG":"Occitanie","INSEE_DEP":34,"NOM_DEP":"H\u00e9rault","Latitude":43.394,"Longitude":3.68,"code_postal":"80200","service_wifi":"Oui","traffic":"high"},{"Nom_Gare":"Dol-de-Bretagne","INSEE_REG":53,"NOM_REG":"Bretagne","INSEE_DEP":35,"NOM_DEP":"Ille-et-Vilaine","Latitude":48.551,"Longitude":-1.738,"code_postal":"35120","service_wifi":"Non","traffic":"high"},{"Nom_Gare":"Redon","INSEE_REG":53,"NOM_REG":"Bretagne","INSEE_DEP":35,"NOM_DEP":"Ille-et-Vilaine","Latitude":47.652,"Longitude":-2.083,"code_postal":"35600","service_wifi":"Non","traffic":"high"},{"Nom_Gare":"Rennes","INSEE_REG":53,"NOM_REG":"Bretagne","INSEE_DEP":35,"NOM_DEP":"Ille-et-Vilaine","Latitude":48.11,"Longitude":-1.684,"code_postal":"35005","service_wifi":"Oui","traffic":"high"},{"Nom_Gare":"Saint-Malo","INSEE_REG":53,"NOM_REG":"Bretagne","INSEE_DEP":35,"NOM_DEP":"Ille-et-Vilaine","Latitude":48.657,"Longitude":-1.974,"code_postal":"35400","service_wifi":"Oui","traffic":"high"},{"Nom_Gare":"Vitr\u00e9","INSEE_REG":53,"NOM_REG":"Bretagne","INSEE_DEP":35,"NOM_DEP":"Ille-et-Vilaine","Latitude":48.131,"Longitude":-1.218,"code_postal":"35500","service_wifi":"Non","traffic":"high"},{"Nom_Gare":"Lorraine TGV","INSEE_REG":24,"NOM_REG":"Centre-Val de Loire","INSEE_DEP":37,"NOM_DEP":"Indre-et-Loire","Latitude":47.381,"Longitude":0.71,"code_postal":"57420","service_wifi":"Oui","traffic":"high"},{"Nom_Gare":"Saint-Pierre-des-Corps","INSEE_REG":24,"NOM_REG":"Centre-Val de Loire","INSEE_DEP":37,"NOM_DEP":"Indre-et-Loire","Latitude":47.386,"Longitude":0.761,"code_postal":"37700","service_wifi":"Oui","traffic":"high"},{"Nom_Gare":"Tours","INSEE_REG":24,"NOM_REG":"Centre-Val de Loire","INSEE_DEP":37,"NOM_DEP":"Indre-et-Loire","Latitude":47.402,"Longitude":0.696,"code_postal":"37000","service_wifi":"Oui","traffic":"high"},{"Nom_Gare":"Grenoble","INSEE_REG":84,"NOM_REG":"Auvergne-Rh\u00f4ne-Alpes","INSEE_DEP":38,"NOM_DEP":"Is\u00e8re","Latitude":45.177,"Longitude":5.741,"code_postal":"38000","service_wifi":"Oui","traffic":"high"},{"Nom_Gare":"Mouchard","INSEE_REG":27,"NOM_REG":"Bourgogne-Franche-Comt\u00e9","INSEE_DEP":39,"NOM_DEP":"Jura","Latitude":46.978,"Longitude":5.792,"code_postal":"39330","service_wifi":"Non","traffic":"high"},{"Nom_Gare":"Dax","INSEE_REG":75,"NOM_REG":"Nouvelle-Aquitaine","INSEE_DEP":40,"NOM_DEP":"Landes","Latitude":43.709,"Longitude":-1.068,"code_postal":"40100","service_wifi":"Oui","traffic":"high"},{"Nom_Gare":"Montauban-Ville-Bourbon","INSEE_REG":84,"NOM_REG":"Auvergne-Rh\u00f4ne-Alpes","INSEE_DEP":42,"NOM_DEP":"Loire","Latitude":45.429,"Longitude":4.36,"code_postal":"82000","service_wifi":"Non","traffic":"high"},{"Nom_Gare":"Ancenis","INSEE_REG":52,"NOM_REG":"Pays de la Loire","INSEE_DEP":44,"NOM_DEP":"Loire-Atlantique","Latitude":47.366,"Longitude":-1.184,"code_postal":"44150","service_wifi":"Non","traffic":"high"},{"Nom_Gare":"La Baule-Escoublac","INSEE_REG":52,"NOM_REG":"Pays de la Loire","INSEE_DEP":44,"NOM_DEP":"Loire-Atlantique","Latitude":47.285,"Longitude":-2.371,"code_postal":"44500","service_wifi":"Oui","traffic":"high"},{"Nom_Gare":"Le Croisic","INSEE_REG":52,"NOM_REG":"Pays de la Loire","INSEE_DEP":44,"NOM_DEP":"Loire-Atlantique","Latitude":47.287,"Longitude":-2.51,"code_postal":"44490","service_wifi":"Non","traffic":"high"},{"Nom_Gare":"Nantes","INSEE_REG":52,"NOM_REG":"Pays de la Loire","INSEE_DEP":44,"NOM_DEP":"Loire-Atlantique","Latitude":47.259,"Longitude":-1.529,"code_postal":"44041","service_wifi":"Oui","traffic":"high"},{"Nom_Gare":"Pornichet","INSEE_REG":52,"NOM_REG":"Pays de la Loire","INSEE_DEP":44,"NOM_DEP":"Loire-Atlantique","Latitude":47.252,"Longitude":-2.314,"code_postal":"44380","service_wifi":"Non","traffic":"high"},{"Nom_Gare":"Le Pouliguen","INSEE_REG":52,"NOM_REG":"Pays de la Loire","INSEE_DEP":44,"NOM_DEP":"Loire-Atlantique","Latitude":47.277,"Longitude":-2.439,"code_postal":"44510","service_wifi":"Non","traffic":"high"},{"Nom_Gare":"Saint-Nazaire","INSEE_REG":52,"NOM_REG":"Pays de la Loire","INSEE_DEP":44,"NOM_DEP":"Loire-Atlantique","Latitude":47.299,"Longitude":-2.184,"code_postal":"44600","service_wifi":"Oui","traffic":"high"},{"Nom_Gare":"Agen","INSEE_REG":75,"NOM_REG":"Nouvelle-Aquitaine","INSEE_DEP":47,"NOM_DEP":"Lot-et-Garonne","Latitude":44.206,"Longitude":0.618,"code_postal":"47000","service_wifi":"Oui","traffic":"high"},{"Nom_Gare":"Saumur","INSEE_REG":52,"NOM_REG":"Pays de la Loire","INSEE_DEP":49,"NOM_DEP":"Maine-et-Loire","Latitude":47.263,"Longitude":-0.073,"code_postal":"49400","service_wifi":"Non","traffic":"high"},{"Nom_Gare":"Ch\u00e2lons-en-Champagne","INSEE_REG":44,"NOM_REG":"Grand Est","INSEE_DEP":51,"NOM_DEP":"Marne","Latitude":48.956,"Longitude":4.362,"code_postal":"51000","service_wifi":"Non","traffic":"high"},{"Nom_Gare":"Reims","INSEE_REG":44,"NOM_REG":"Grand Est","INSEE_DEP":51,"NOM_DEP":"Marne","Latitude":49.245,"Longitude":4.041,"code_postal":"51100","service_wifi":"Oui","traffic":"high"},{"Nom_Gare":"Vitry-le-Fran\u00e7ois","INSEE_REG":44,"NOM_REG":"Grand Est","INSEE_DEP":51,"NOM_DEP":"Marne","Latitude":48.73,"Longitude":4.597,"code_postal":"51300","service_wifi":"Non","traffic":"high"},{"Nom_Gare":"Laval","INSEE_REG":52,"NOM_REG":"Pays de la Loire","INSEE_DEP":53,"NOM_DEP":"Mayenne","Latitude":48.077,"Longitude":-0.76,"code_postal":"53000","service_wifi":"Non","traffic":"high"},{"Nom_Gare":"Lun\u00e9ville","INSEE_REG":44,"NOM_REG":"Grand Est","INSEE_DEP":54,"NOM_DEP":"Meurthe-et-Moselle","Latitude":48.585,"Longitude":6.483,"code_postal":"54300","service_wifi":"Non","traffic":"high"},{"Nom_Gare":"Nancy-Ville","INSEE_REG":44,"NOM_REG":"Grand Est","INSEE_DEP":54,"NOM_DEP":"Meurthe-et-Moselle","Latitude":48.703,"Longitude":6.224,"code_postal":"54000","service_wifi":"Oui","traffic":"high"},{"Nom_Gare":"Bar-le-Duc","INSEE_REG":44,"NOM_REG":"Grand Est","INSEE_DEP":55,"NOM_DEP":"Meuse","Latitude":48.756,"Longitude":5.194,"code_postal":"55000","service_wifi":"Non","traffic":"high"},{"Nom_Gare":"Auray","INSEE_REG":53,"NOM_REG":"Bretagne","INSEE_DEP":56,"NOM_DEP":"Morbihan","Latitude":47.663,"Longitude":-2.988,"code_postal":"56400","service_wifi":"Oui","traffic":"high"},{"Nom_Gare":"Lorient","INSEE_REG":53,"NOM_REG":"Bretagne","INSEE_DEP":56,"NOM_DEP":"Morbihan","Latitude":47.759,"Longitude":-3.384,"code_postal":"56100","service_wifi":"Oui","traffic":"high"},{"Nom_Gare":"Vannes","INSEE_REG":53,"NOM_REG":"Bretagne","INSEE_DEP":56,"NOM_DEP":"Morbihan","Latitude":47.636,"Longitude":-2.773,"code_postal":"56000","service_wifi":"Oui","traffic":"high"},{"Nom_Gare":"Forbach","INSEE_REG":44,"NOM_REG":"Grand Est","INSEE_DEP":57,"NOM_DEP":"Moselle","Latitude":49.18,"Longitude":6.895,"code_postal":"57600","service_wifi":"Non","traffic":"high"},{"Nom_Gare":"Metz-Ville","INSEE_REG":44,"NOM_REG":"Grand Est","INSEE_DEP":57,"NOM_DEP":"Moselle","Latitude":49.101,"Longitude":6.155,"code_postal":"57000","service_wifi":"Oui","traffic":"high"},{"Nom_Gare":"Sarrebourg","INSEE_REG":44,"NOM_REG":"Grand Est","INSEE_DEP":57,"NOM_DEP":"Moselle","Latitude":48.735,"Longitude":7.052,"code_postal":"57400","service_wifi":"Non","traffic":"high"},{"Nom_Gare":"Thionville","INSEE_REG":44,"NOM_REG":"Grand Est","INSEE_DEP":57,"NOM_DEP":"Moselle","Latitude":49.362,"Longitude":6.144,"code_postal":"57100","service_wifi":"Oui","traffic":"high"},{"Nom_Gare":"Croix - Wasquehal","INSEE_REG":32,"NOM_REG":"Hauts-de-France","INSEE_DEP":59,"NOM_DEP":"Nord","Latitude":50.678,"Longitude":3.135,"code_postal":"59170","service_wifi":"Non","traffic":"low"},{"Nom_Gare":"Douai","INSEE_REG":32,"NOM_REG":"Hauts-de-France","INSEE_DEP":59,"NOM_DEP":"Nord","Latitude":50.39,"Longitude":3.09,"code_postal":"59500","service_wifi":"Oui","traffic":"high"},{"Nom_Gare":"Dunkerque","INSEE_REG":32,"NOM_REG":"Hauts-de-France","INSEE_DEP":59,"NOM_DEP":"Nord","Latitude":51.046,"Longitude":2.389,"code_postal":"59140","service_wifi":"Oui","traffic":"high"},{"Nom_Gare":"Hazebrouck","INSEE_REG":32,"NOM_REG":"Hauts-de-France","INSEE_DEP":59,"NOM_DEP":"Nord","Latitude":50.738,"Longitude":2.726,"code_postal":"59190","service_wifi":"Non","traffic":"high"},{"Nom_Gare":"Lille-Europe","INSEE_REG":32,"NOM_REG":"Hauts-de-France","INSEE_DEP":59,"NOM_DEP":"Nord","Latitude":50.641,"Longitude":3.074,"code_postal":"59777","service_wifi":"Oui","traffic":"high"},{"Nom_Gare":"Lille-Flandres","INSEE_REG":32,"NOM_REG":"Hauts-de-France","INSEE_DEP":59,"NOM_DEP":"Nord","Latitude":50.628,"Longitude":3.056,"code_postal":"59000","service_wifi":"Oui","traffic":"high"},{"Nom_Gare":"Roubaix","INSEE_REG":32,"NOM_REG":"Hauts-de-France","INSEE_DEP":59,"NOM_DEP":"Nord","Latitude":50.701,"Longitude":3.17,"code_postal":"59100","service_wifi":"Non","traffic":"high"},{"Nom_Gare":"Tourcoing","INSEE_REG":32,"NOM_REG":"Hauts-de-France","INSEE_DEP":59,"NOM_DEP":"Nord","Latitude":50.718,"Longitude":3.141,"code_postal":"59200","service_wifi":"Non","traffic":"high"},{"Nom_Gare":"Valenciennes","INSEE_REG":32,"NOM_REG":"Hauts-de-France","INSEE_DEP":59,"NOM_DEP":"Nord","Latitude":50.342,"Longitude":3.517,"code_postal":"59300","service_wifi":"Oui","traffic":"high"},{"Nom_Gare":"Boulogne-Ville","INSEE_REG":32,"NOM_REG":"Hauts-de-France","INSEE_DEP":60,"NOM_DEP":"Oise","Latitude":49.607,"Longitude":2.707,"code_postal":"62200","service_wifi":"Non","traffic":"high"},{"Nom_Gare":"Arras","INSEE_REG":32,"NOM_REG":"Hauts-de-France","INSEE_DEP":62,"NOM_DEP":"Pas-de-Calais","Latitude":50.29,"Longitude":2.778,"code_postal":"62000","service_wifi":"Oui","traffic":"high"},{"Nom_Gare":"B\u00e9thune","INSEE_REG":32,"NOM_REG":"Hauts-de-France","INSEE_DEP":62,"NOM_DEP":"Pas-de-Calais","Latitude":50.517,"Longitude":2.636,"code_postal":"62400","service_wifi":"Non","traffic":"high"},{"Nom_Gare":"Calais - Fr\u00e9thun","INSEE_REG":32,"NOM_REG":"Hauts-de-France","INSEE_DEP":62,"NOM_DEP":"Pas-de-Calais","Latitude":50.935,"Longitude":1.85,"code_postal":"62185","service_wifi":"Oui","traffic":"high"},{"Nom_Gare":"Calais-Ville","INSEE_REG":32,"NOM_REG":"Hauts-de-France","INSEE_DEP":62,"NOM_DEP":"Pas-de-Calais","Latitude":50.43,"Longitude":3.063,"code_postal":"62100","service_wifi":"Non","traffic":"high"},{"Nom_Gare":"\u00c9taples - Le Touquet","INSEE_REG":32,"NOM_REG":"Hauts-de-France","INSEE_DEP":62,"NOM_DEP":"Pas-de-Calais","Latitude":50.525,"Longitude":1.589,"code_postal":"62630","service_wifi":"Non","traffic":"high"},{"Nom_Gare":"Lens","INSEE_REG":32,"NOM_REG":"Hauts-de-France","INSEE_DEP":62,"NOM_DEP":"Pas-de-Calais","Latitude":50.419,"Longitude":3.027,"code_postal":"62300","service_wifi":"Oui","traffic":"high"},{"Nom_Gare":"Bayonne","INSEE_REG":75,"NOM_REG":"Nouvelle-Aquitaine","INSEE_DEP":64,"NOM_DEP":"Pyr\u00e9n\u00e9es-Atlantiques","Latitude":43.503,"Longitude":-1.443,"code_postal":"64100","service_wifi":"Oui","traffic":"high"},{"Nom_Gare":"Biarritz","INSEE_REG":75,"NOM_REG":"Nouvelle-Aquitaine","INSEE_DEP":64,"NOM_DEP":"Pyr\u00e9n\u00e9es-Atlantiques","Latitude":43.472,"Longitude":-1.555,"code_postal":"64200","service_wifi":"Oui","traffic":"high"},{"Nom_Gare":"Hendaye","INSEE_REG":75,"NOM_REG":"Nouvelle-Aquitaine","INSEE_DEP":64,"NOM_DEP":"Pyr\u00e9n\u00e9es-Atlantiques","Latitude":43.355,"Longitude":-1.774,"code_postal":"64700","service_wifi":"Oui","traffic":"high"},{"Nom_Gare":"Orthez","INSEE_REG":75,"NOM_REG":"Nouvelle-Aquitaine","INSEE_DEP":64,"NOM_DEP":"Pyr\u00e9n\u00e9es-Atlantiques","Latitude":43.491,"Longitude":-0.768,"code_postal":"64300","service_wifi":"Non","traffic":"high"},{"Nom_Gare":"Pau","INSEE_REG":75,"NOM_REG":"Nouvelle-Aquitaine","INSEE_DEP":64,"NOM_DEP":"Pyr\u00e9n\u00e9es-Atlantiques","Latitude":43.295,"Longitude":-0.35,"code_postal":"64000","service_wifi":"Oui","traffic":"high"},{"Nom_Gare":"Saint-Jean-de-Luz - Ciboure","INSEE_REG":75,"NOM_REG":"Nouvelle-Aquitaine","INSEE_DEP":64,"NOM_DEP":"Pyr\u00e9n\u00e9es-Atlantiques","Latitude":43.381,"Longitude":-1.676,"code_postal":"64500","service_wifi":"Non","traffic":"high"},{"Nom_Gare":"Lourdes","INSEE_REG":76,"NOM_REG":"Occitanie","INSEE_DEP":65,"NOM_DEP":"Hautes-Pyr\u00e9n\u00e9es","Latitude":43.095,"Longitude":-0.049,"code_postal":"65100","service_wifi":"Oui","traffic":"high"},{"Nom_Gare":"Tarbes","INSEE_REG":76,"NOM_REG":"Occitanie","INSEE_DEP":65,"NOM_DEP":"Hautes-Pyr\u00e9n\u00e9es","Latitude":43.232,"Longitude":0.071,"code_postal":"65000","service_wifi":"Oui","traffic":"high"},{"Nom_Gare":"Perpignan","INSEE_REG":76,"NOM_REG":"Occitanie","INSEE_DEP":66,"NOM_DEP":"Pyr\u00e9n\u00e9es-Orientales","Latitude":42.697,"Longitude":2.888,"code_postal":"66027","service_wifi":"Oui","traffic":"high"},{"Nom_Gare":"Saverne","INSEE_REG":44,"NOM_REG":"Grand Est","INSEE_DEP":67,"NOM_DEP":"Bas-Rhin","Latitude":48.744,"Longitude":7.359,"code_postal":"67700","service_wifi":"Non","traffic":"high"},{"Nom_Gare":"S\u00e9lestat","INSEE_REG":44,"NOM_REG":"Grand Est","INSEE_DEP":67,"NOM_DEP":"Bas-Rhin","Latitude":48.265,"Longitude":7.441,"code_postal":"67600","service_wifi":"Non","traffic":"high"},{"Nom_Gare":"Strasbourg-Ville","INSEE_REG":44,"NOM_REG":"Grand Est","INSEE_DEP":67,"NOM_DEP":"Bas-Rhin","Latitude":48.561,"Longitude":7.76,"code_postal":"67000","service_wifi":"Oui","traffic":"high"},{"Nom_Gare":"Colmar","INSEE_REG":44,"NOM_REG":"Grand Est","INSEE_DEP":68,"NOM_DEP":"Haut-Rhin","Latitude":48.077,"Longitude":7.361,"code_postal":"68000","service_wifi":"Oui","traffic":"high"},{"Nom_Gare":"Mulhouse-Ville","INSEE_REG":44,"NOM_REG":"Grand Est","INSEE_DEP":68,"NOM_DEP":"Haut-Rhin","Latitude":47.746,"Longitude":7.34,"code_postal":"68053","service_wifi":"Oui","traffic":"high"},{"Nom_Gare":"Besan\u00e7on Franche-Comt\u00e9 TGV","INSEE_REG":84,"NOM_REG":"Auvergne-Rh\u00f4ne-Alpes","INSEE_DEP":69,"NOM_DEP":"Rh\u00f4ne","Latitude":45.985,"Longitude":4.706,"code_postal":"25870","service_wifi":"Oui","traffic":"high"},{"Nom_Gare":"Lyon-Part-Dieu","INSEE_REG":84,"NOM_REG":"Auvergne-Rh\u00f4ne-Alpes","INSEE_DEP":69,"NOM_DEP":"Rh\u00f4ne","Latitude":45.759,"Longitude":4.841,"code_postal":"69003","service_wifi":"Oui","traffic":"high"},{"Nom_Gare":"Paris-Gare-de-Lyon","INSEE_REG":84,"NOM_REG":"Auvergne-Rh\u00f4ne-Alpes","INSEE_DEP":69,"NOM_DEP":"Rh\u00f4ne","Latitude":45.78,"Longitude":4.804,"code_postal":"75012","service_wifi":"Oui","traffic":"high"},{"Nom_Gare":"Dole-Ville","INSEE_REG":27,"NOM_REG":"Bourgogne-Franche-Comt\u00e9","INSEE_DEP":70,"NOM_DEP":"Haute-Sa\u00f4ne","Latitude":47.439,"Longitude":5.589,"code_postal":"39100","service_wifi":"Non","traffic":"high"},{"Nom_Gare":"Chalon-sur-Sa\u00f4ne","INSEE_REG":27,"NOM_REG":"Bourgogne-Franche-Comt\u00e9","INSEE_DEP":71,"NOM_DEP":"Sa\u00f4ne-et-Loire","Latitude":46.789,"Longitude":4.841,"code_postal":"71100","service_wifi":"Oui","traffic":"high"},{"Nom_Gare":"Le Mans","INSEE_REG":52,"NOM_REG":"Pays de la Loire","INSEE_DEP":72,"NOM_DEP":"Sarthe","Latitude":47.999,"Longitude":0.192,"code_postal":"72000","service_wifi":"Oui","traffic":"high"},{"Nom_Gare":"Sabl\u00e9-sur-Sarthe","INSEE_REG":52,"NOM_REG":"Pays de la Loire","INSEE_DEP":72,"NOM_DEP":"Sarthe","Latitude":47.837,"Longitude":-0.329,"code_postal":"72300","service_wifi":"Non","traffic":"high"},{"Nom_Gare":"Aime-La Plagne","INSEE_REG":84,"NOM_REG":"Auvergne-Rh\u00f4ne-Alpes","INSEE_DEP":73,"NOM_DEP":"Savoie","Latitude":45.573,"Longitude":6.606,"code_postal":"73210","service_wifi":"Non","traffic":"high"},{"Nom_Gare":"Aix-les-Bains-Le Revard","INSEE_REG":84,"NOM_REG":"Auvergne-Rh\u00f4ne-Alpes","INSEE_DEP":73,"NOM_DEP":"Savoie","Latitude":45.69,"Longitude":5.919,"code_postal":"73100","service_wifi":"Oui","traffic":"high"},{"Nom_Gare":"Albertville","INSEE_REG":84,"NOM_REG":"Auvergne-Rh\u00f4ne-Alpes","INSEE_DEP":73,"NOM_DEP":"Savoie","Latitude":45.659,"Longitude":6.384,"code_postal":"73200","service_wifi":"Non","traffic":"high"},{"Nom_Gare":"Bourg-Saint-Maurice","INSEE_REG":84,"NOM_REG":"Auvergne-Rh\u00f4ne-Alpes","INSEE_DEP":73,"NOM_DEP":"Savoie","Latitude":45.573,"Longitude":6.828,"code_postal":"73700","service_wifi":"Oui","traffic":"high"},{"Nom_Gare":"Chamb\u00e9ry - Challes-les-Eaux","INSEE_REG":84,"NOM_REG":"Auvergne-Rh\u00f4ne-Alpes","INSEE_DEP":73,"NOM_DEP":"Savoie","Latitude":45.559,"Longitude":5.975,"code_postal":"73010","service_wifi":"Oui","traffic":"high"},{"Nom_Gare":"Landry","INSEE_REG":84,"NOM_REG":"Auvergne-Rh\u00f4ne-Alpes","INSEE_DEP":73,"NOM_DEP":"Savoie","Latitude":45.576,"Longitude":6.736,"code_postal":"73210","service_wifi":"Non","traffic":"medium"},{"Nom_Gare":"Modane","INSEE_REG":84,"NOM_REG":"Auvergne-Rh\u00f4ne-Alpes","INSEE_DEP":73,"NOM_DEP":"Savoie","Latitude":45.201,"Longitude":6.671,"code_postal":"73500","service_wifi":"Non","traffic":"high"},{"Nom_Gare":"Mo\u00fbtiers - Salins - Brides-les-Bains","INSEE_REG":84,"NOM_REG":"Auvergne-Rh\u00f4ne-Alpes","INSEE_DEP":73,"NOM_DEP":"Savoie","Latitude":45.452,"Longitude":6.567,"code_postal":"73600","service_wifi":"Oui","traffic":"high"},{"Nom_Gare":"Saint-Avre - La Chambre","INSEE_REG":84,"NOM_REG":"Auvergne-Rh\u00f4ne-Alpes","INSEE_DEP":73,"NOM_DEP":"Savoie","Latitude":45.356,"Longitude":6.304,"code_postal":"73130","service_wifi":"Non","traffic":"high"},{"Nom_Gare":"Annecy","INSEE_REG":84,"NOM_REG":"Auvergne-Rh\u00f4ne-Alpes","INSEE_DEP":74,"NOM_DEP":"Haute-Savoie","Latitude":45.898,"Longitude":6.119,"code_postal":"74000","service_wifi":"Oui","traffic":"high"},{"Nom_Gare":"Annemasse","INSEE_REG":84,"NOM_REG":"Auvergne-Rh\u00f4ne-Alpes","INSEE_DEP":74,"NOM_DEP":"Haute-Savoie","Latitude":46.185,"Longitude":6.242,"code_postal":"74100","service_wifi":"Non","traffic":"high"},{"Nom_Gare":"\u00c9vian-les-Bains","INSEE_REG":84,"NOM_REG":"Auvergne-Rh\u00f4ne-Alpes","INSEE_DEP":74,"NOM_DEP":"Haute-Savoie","Latitude":46.398,"Longitude":6.602,"code_postal":"74500","service_wifi":"Non","traffic":"high"},{"Nom_Gare":"Sallanches - Combloux - Meg\u00e8ve","INSEE_REG":84,"NOM_REG":"Auvergne-Rh\u00f4ne-Alpes","INSEE_DEP":74,"NOM_DEP":"Haute-Savoie","Latitude":45.901,"Longitude":6.643,"code_postal":"74700","service_wifi":"Non","traffic":"high"},{"Nom_Gare":"Thonon-les-Bains","INSEE_REG":84,"NOM_REG":"Auvergne-Rh\u00f4ne-Alpes","INSEE_DEP":74,"NOM_DEP":"Haute-Savoie","Latitude":46.374,"Longitude":6.485,"code_postal":"74200","service_wifi":"Non","traffic":"high"},{"Nom_Gare":"Paris-Est","INSEE_REG":11,"NOM_REG":"\u00cele-de-France","INSEE_DEP":75,"NOM_DEP":"Paris","Latitude":48.871,"Longitude":2.395,"code_postal":"75010","service_wifi":"Oui","traffic":"high"},{"Nom_Gare":"Paris-Montparnasse","INSEE_REG":11,"NOM_REG":"\u00cele-de-France","INSEE_DEP":75,"NOM_DEP":"Paris","Latitude":48.838,"Longitude":2.317,"code_postal":"75015","service_wifi":"Oui","traffic":"high"},{"Nom_Gare":"Paris-Nord","INSEE_REG":11,"NOM_REG":"\u00cele-de-France","INSEE_DEP":75,"NOM_DEP":"Paris","Latitude":48.881,"Longitude":2.356,"code_postal":"75010","service_wifi":"Oui","traffic":"high"},{"Nom_Gare":"Le Havre","INSEE_REG":28,"NOM_REG":"Normandie","INSEE_DEP":76,"NOM_DEP":"Seine-Maritime","Latitude":49.505,"Longitude":0.174,"code_postal":"76600","service_wifi":"Oui","traffic":"high"},{"Nom_Gare":"Mantes-la-Jolie","INSEE_REG":11,"NOM_REG":"\u00cele-de-France","INSEE_DEP":78,"NOM_DEP":"Yvelines","Latitude":48.994,"Longitude":1.721,"code_postal":"78200","service_wifi":"Non","traffic":"high"},{"Nom_Gare":"Versailles-Chantiers","INSEE_REG":11,"NOM_REG":"\u00cele-de-France","INSEE_DEP":78,"NOM_DEP":"Yvelines","Latitude":48.797,"Longitude":2.136,"code_postal":"78000","service_wifi":"Oui","traffic":"high"},{"Nom_Gare":"Niort","INSEE_REG":75,"NOM_REG":"Nouvelle-Aquitaine","INSEE_DEP":79,"NOM_DEP":"Deux-S\u00e8vres","Latitude":46.319,"Longitude":-0.458,"code_postal":"79000","service_wifi":"Oui","traffic":"high"},{"Nom_Gare":"Amiens","INSEE_REG":32,"NOM_REG":"Hauts-de-France","INSEE_DEP":80,"NOM_DEP":"Somme","Latitude":49.9,"Longitude":2.289,"code_postal":"80017","service_wifi":"Oui","traffic":"high"},{"Nom_Gare":"Les Arcs - Draguignan","INSEE_REG":93,"NOM_REG":"Provence-Alpes-C\u00f4te d'Azur","INSEE_DEP":83,"NOM_DEP":"Var","Latitude":43.504,"Longitude":6.483,"code_postal":"83460","service_wifi":"Oui","traffic":"high"},{"Nom_Gare":"Hy\u00e8res","INSEE_REG":93,"NOM_REG":"Provence-Alpes-C\u00f4te d'Azur","INSEE_DEP":83,"NOM_DEP":"Var","Latitude":43.09,"Longitude":6.123,"code_postal":"83400","service_wifi":"Non","traffic":"high"},{"Nom_Gare":"Toulon","INSEE_REG":93,"NOM_REG":"Provence-Alpes-C\u00f4te d'Azur","INSEE_DEP":83,"NOM_DEP":"Var","Latitude":43.133,"Longitude":5.964,"code_postal":"83000","service_wifi":"Oui","traffic":"high"},{"Nom_Gare":"Orange","INSEE_REG":93,"NOM_REG":"Provence-Alpes-C\u00f4te d'Azur","INSEE_DEP":84,"NOM_DEP":"Vaucluse","Latitude":44.14,"Longitude":4.812,"code_postal":"84100","service_wifi":"Non","traffic":"high"},{"Nom_Gare":"La Roche-sur-Yon","INSEE_REG":52,"NOM_REG":"Pays de la Loire","INSEE_DEP":85,"NOM_DEP":"Vend\u00e9e","Latitude":46.67,"Longitude":-1.432,"code_postal":"85000","service_wifi":"Oui","traffic":"high"},{"Nom_Gare":"Les Sables-d'Olonne","INSEE_REG":52,"NOM_REG":"Pays de la Loire","INSEE_DEP":85,"NOM_DEP":"Vend\u00e9e","Latitude":46.479,"Longitude":-1.758,"code_postal":"85100","service_wifi":"Non","traffic":"high"},{"Nom_Gare":"Ch\u00e2tellerault","INSEE_REG":75,"NOM_REG":"Nouvelle-Aquitaine","INSEE_DEP":86,"NOM_DEP":"Vienne","Latitude":46.796,"Longitude":0.525,"code_postal":"86100","service_wifi":"Oui","traffic":"high"},{"Nom_Gare":"Futuroscope","INSEE_REG":75,"NOM_REG":"Nouvelle-Aquitaine","INSEE_DEP":86,"NOM_DEP":"Vienne","Latitude":46.659,"Longitude":0.362,"code_postal":"86360","service_wifi":"Non","traffic":"high"},{"Nom_Gare":"Poitiers","INSEE_REG":75,"NOM_REG":"Nouvelle-Aquitaine","INSEE_DEP":86,"NOM_DEP":"Vienne","Latitude":46.579,"Longitude":0.335,"code_postal":"86000","service_wifi":"Oui","traffic":"high"},{"Nom_Gare":"\u00c9pinal","INSEE_REG":44,"NOM_REG":"Grand Est","INSEE_DEP":88,"NOM_DEP":"Vosges","Latitude":48.175,"Longitude":6.45,"code_postal":"88000","service_wifi":"Non","traffic":"high"},{"Nom_Gare":"Remiremont","INSEE_REG":44,"NOM_REG":"Grand Est","INSEE_DEP":88,"NOM_DEP":"Vosges","Latitude":48.006,"Longitude":6.604,"code_postal":"88200","service_wifi":"Non","traffic":"high"},{"Nom_Gare":"Saint-Di\u00e9-des-Vosges","INSEE_REG":44,"NOM_REG":"Grand Est","INSEE_DEP":88,"NOM_DEP":"Vosges","Latitude":48.293,"Longitude":6.962,"code_postal":"88100","service_wifi":"Non","traffic":"high"},{"Nom_Gare":"Saint-Michel - Valloire","INSEE_REG":44,"NOM_REG":"Grand Est","INSEE_DEP":88,"NOM_DEP":"Vosges","Latitude":48.157,"Longitude":6.134,"code_postal":"73450","service_wifi":"Non","traffic":"high"},{"Nom_Gare":"Belfort - Montb\u00e9liard TGV","INSEE_REG":27,"NOM_REG":"Bourgogne-Franche-Comt\u00e9","INSEE_DEP":90,"NOM_DEP":"Territoire de Belfort","Latitude":47.637,"Longitude":6.858,"code_postal":"90400","service_wifi":"Oui","traffic":"high"},{"Nom_Gare":"Massy - Palaiseau","INSEE_REG":11,"NOM_REG":"\u00cele-de-France","INSEE_DEP":91,"NOM_DEP":"Essonne","Latitude":48.731,"Longitude":2.243,"code_postal":"91300","service_wifi":"Oui","traffic":"high"},{"Nom_Gare":"Massy TGV","INSEE_REG":11,"NOM_REG":"\u00cele-de-France","INSEE_DEP":91,"NOM_DEP":"Essonne","Latitude":48.736,"Longitude":2.291,"code_postal":"91300","service_wifi":"Oui","traffic":"high"}]